GPS BIIR-2  (PRN 13)    
1 24876C 97035A   22191.71090278 -.00000000  00000-0  00000-0 0  1915
2 24876  55.5157 154.7678 0059273  51.1429 248.2496  2.00562911    15
GPS BIIR-4  (PRN 20)    
1 26360C 00025A   22191.71090278 -.00000000  00000-0  00000-0 0  1918
2 26360  54.0745  77.9060 0047671 184.1311 204.4910  2.00570439    18
GPS BIIR-6  (PRN 22)    
1 26605C 00071A   22191.71090278 -.00000000  00000-0  00000-0 0  1911
2 26605  55.0993 151.7506 0136591 254.4750 262.5886  2.00558582    12
GPS BIIR-8  (PRN 16)    
1 27663C 03005A   22191.71090278  .00000000  00000-0  00000-0 0  1915
2 27663  55.4946 272.1403 0125436  41.0592 326.9857  2.00563270    16
GPS BIIR-9  (PRN 21)    
1 27704C 03010A   22191.71090278 -.00000000  00000-0  00000-0 0  1918
2 27704  55.0339  22.3646 0244262 306.7203 277.4226  2.00556948    11
GPS BIIR-11 (PRN 19)    
1 28190C 04009A   22191.71090278  .00000000  00000-0  00000-0 0  1916
2 28190  55.9915 333.1273 0090699 121.8462  41.5641  2.00559855    16
GPS BIIR-13 (PRN 02)    
1 28474C 04045A   22191.71090278 -.00000000  00000-0  00000-0 0  1912
2 28474  55.3604  22.5102 0205882 279.2309 154.1398  2.00560921    16
GPS BIIRM-1 (PRN 17)    
1 28874C 05038A   22191.71090278  .00000000  00000-0  00000-0 0  1918
2 28874  56.0562 330.5630 0137622 274.4993 272.2702  2.00574858    16
GPS BIIRM-2 (PRN 31)    
1 29486C 06042A   22191.71090278  .00000000  00000-0  00000-0 0  1914
2 29486  54.7155 208.3490 0103669  21.7729  79.8051  2.00551678    12
GPS BIIRM-3 (PRN 12)    
1 29601C 06052A   22191.71090278  .00000000  00000-0  00000-0 0  1914
2 29601  55.5023 271.0791 0083272  74.6307  70.7673  2.00552364    14
GPS BIIRM-4 (PRN 15)    
1 32260C 07047A   22191.71090278 -.00000000  00000-0  00000-0 0  1915
2 32260  53.3208 139.5825 0140405  62.8049 216.5171  2.00573285    18
GPS BIIRM-5 (PRN 29)    
1 32384C 07062A   22191.71090278  .00000000  00000-0  00000-0 0  1918
2 32384  56.1760 331.3271 0020957 138.7351 269.4526  2.00563299    19
GPS BIIRM-6 (PRN 07)    
1 32711C 08012A   22191.71090278  .00000000  00000-0  00000-0 0  1918
2 32711  54.4757 207.2789 0164764 231.3590 106.9195  2.00565553    17
GPS BIIRM-8 (PRN 05)    
1 35752C 09043A   22191.71090278 -.00000000  00000-0  00000-0 0  1912
2 35752  55.0861  84.5923 0058808  59.5845 295.6135  2.00554441    12
GPS BIIF-1  (PRN 25)    
1 36585C 10022A   22191.71090278  .00000000  00000-0  00000-0 0  1915
2 36585  54.7862 266.5818 0102645  56.8872  56.2907  2.00566402    16
GPS BIIF-2  (PRN 01)    
1 37753C 11036A   22191.71090278 -.00000000  00000-0  00000-0 0  1910
2 37753  56.6171  27.7982 0118363  52.5870 145.3055  2.00565255    11
GPS BIIF-3  (PRN 24)    
1 38833C 12053A   22191.71090278  .00000000  00000-0  00000-0 0  1919
2 38833  53.5315 202.3978 0124539  46.2740 164.0256  2.00561790    12
GPS BIIF-4  (PRN 27)    
1 39166C 13023A   22191.71090278  .00000000  00000-0  00000-0 0  1917
2 39166  55.6823 326.9266 0104060  38.5728 273.6292  2.00565546    19
GPS BIIF-5  (PRN 30)    
1 39533C 14008A   22191.71090278  .00000000  00000-0  00000-0 0  1919
2 39533  53.6246 207.9064 0060443 209.3697 101.7056  2.00554559    18
GPS BIIF-6  (PRN 06)    
1 39741C 14026A   22191.71090278 -.00000000  00000-0  00000-0 0  1911
2 39741  56.5785  27.3239 0026283 307.3839 160.9933  2.00554045    19
GPS BIIF-7  (PRN 09)    
1 40105C 14045A   22191.71090278 -.00000000  00000-0  00000-0 0  1918
2 40105  54.6981 145.8774 0020148 111.3485 298.1816  2.00548618    19
GPS BIIF-8  (PRN 03)    
1 40294C 14068A   22191.71090278 -.00000000  00000-0  00000-0 0  1912
2 40294  55.8301  87.0174 0041642  55.4909  82.9243  2.00573127    15
GPS BIIF-9  (PRN 26)    
1 40534C 15013A   22191.71090278  .00000000  00000-0  00000-0 0  1919
2 40534  53.6875 263.7342 0068983  20.2588  17.1528  2.00550987    19
GPS BIIF-10 (PRN 08)    
1 40730C 15033A   22191.71090278  .00000000  00000-0  00000-0 0  1919
2 40730  55.1802 325.7449 0073529   7.9587 271.1623  2.00577099    15
GPS BIIF-11 (PRN 10)    
1 41019C 15062A   22191.71090278 -.00000000  00000-0  00000-0 0  1913
2 41019  55.8185  86.8607 0078365 217.9384  28.4750  2.00562648    17
GPS BIIF-12 (PRN 32)    
1 41328C 16007A   22191.71090278 -.00000000  00000-0  00000-0 0  1916
2 41328  54.9153 146.5549 0062192 230.6918 310.4542  2.00569586    11
GPS BIII-1  (PRN 04)    
1 43873C 18109A   22191.71090278 -.00000000  00000-0  00000-0 0  1918
2 43873  55.0950 148.9784 0019318 195.5061 241.7925  2.00572433    18
GPS BIII-2  (PRN 18)    
1 44506C 19056A   22191.71090278 -.00000000  00000-0  00000-0 0  1914
2 44506  55.6904  28.1231 0025192 177.4738 160.3655  2.00557222    15
GPS BIII-3  (PRN 23)    
1 45854C 20041A   22191.71090278 -.00000000  00000-0  00000-0 0  1917
2 45854  55.5369  85.3944 0023274 177.1930  96.9653  2.00558695    19
GPS BIII-4  (PRN 14)    
1 46826C 20078A   22191.71090278  .00000000  00000-0  00000-0 0  1916
2 46826  54.5504 269.1546 0021125 188.8353  60.8927  2.00564999    18
GPS BIII-5  (PRN 11)    
1 48859C 21054A   22191.71090278 -.00000000  00000-0  00000-0 0  1910
2 48859  55.1965  30.1116 0005269 188.4147 245.3953  2.00571967    13
